ORBCOMM FM103 [+]       
1 40091U 14040F   23357.15952386  .00001247  00000+0  31729-3 0  9990
2 40091  47.0067  53.3789 0002579 296.9816  63.0806 14.56153176502110
ORBCOMM FM114 [+]       
1 41179U 15081A   23355.95915527  .00001525  00000+0  37959-3 0  9996
2 41179  47.0042 328.3624 0002175 346.3757  13.7069 14.56175097425247
ORBCOMM FM119 [-]       
1 41180U 15081B   23356.75062558  .00001109  00000+0  28626-3 0  9993
2 41180  46.9999 233.8287 0001031  81.1672 278.9329 14.56146228426613
ORBCOMM FM105 [-]       
1 41181U 15081C   23356.66259381  .00000486  00000+0  18586-3 0  9997
2 41181  46.9999 188.4788 0001464  40.1412 319.9576 14.44151404422303
ORBCOMM FM110 [+]       
1 41182U 15081D   23356.96529089  .00001804  00000+0  44178-3 0  9997
2 41182  47.0028 323.0442 0001920 236.5464 123.5237 14.56186260425440
ORBCOMM FM118 [+]       
1 41183U 15081E   23355.98200575  .00001634  00000+0  40394-3 0  9992
2 41183  47.0052 327.9511 0002080 228.1906 131.8801 14.56176801425229
ORBCOMM FM112 [+]       
1 41184U 15081F   23356.79717023  .00001428  00000+0  35774-3 0  9991
2 41184  46.9983 232.8545 0001147  55.6488 304.4505 14.56162689426569
ORBCOMM FM113 [+]       
1 41185U 15081G   23356.77399143  .00001333  00000+0  33650-3 0  9995
2 41185  46.9999 233.2025 0000775 110.8117 249.2851 14.56143049426541
